[{"OBJECT_NAME":"JILIN-1 GAOFEN 2D","OBJECT_ID":"2021-086A","EPOCH":"2026-03-09T21:43:54.183072","MEAN_MOTION":15.09714905,"ECCENTRICITY":0.00351294,"INCLINATION":97.632,"RA_OF_ASC_NODE":191.8747,"ARG_OF_PERICENTER":123.7982,"MEAN_ANOMALY":236.66,"EPHEMERIS_TYPE":0,"CLASSIFICATION_TYPE":"U","NORAD_CAT_ID":49256,"ELEMENT_SET_NO":999,"REV_AT_EPOCH":24573,"BSTAR":0.00040994132,"MEAN_MOTION_DOT":6.64e-5,"MEAN_MOTION_DDOT":0},{"OBJECT_NAME":"STARLINK-4582","OBJECT_ID":"2022-101AU","EPOCH":"2026-03-09T22:43:37.484832","MEAN_MOTION":15.08867086,"ECCENTRICITY":0.00014862,"INCLINATION":53.2172,"RA_OF_ASC_NODE":52.9933,"ARG_OF_PERICENTER":80.7548,"MEAN_ANOMALY":279.3612,"EPHEMERIS_TYPE":0,"CLASSIFICATION_TYPE":"U","NORAD_CAT_ID":53569,"ELEMENT_SET_NO":999,"REV_AT_EPOCH":19715,"BSTAR":0.00020015285,"MEAN_MOTION_DOT":2.901e-5,"MEAN_MOTION_DDOT":0}]
